     3.00           N                   E                   RINEX VERSION / TYPE
BRD_USR             ESA                 20190111 061706  UTCPGM / RUN BY / DATE
 GAL   4.4500E+01  3.5156E-02 -2.0142E-03  0.0000E+00       IONOSPHERIC CORR
GAUT  3.7252902985E-09-1.776356839E-15 432000 2035 GSTB   0 TIME SYSTEM CORR
GPGA -2.8812792152E-09-7.993605777E-15 432000 2035 GSTB   0 TIME SYSTEM CORR
                                                            END OF HEADER
E01 2019 01 11 04 30 00-5.182426539250E-04-8.000711204659E-12 0.000000000000E+00
     1.070000000000E+02 1.781250000000E+00 2.614394614315E-09 3.100650572416E+00
     1.788139343262E-07 1.028669066727E-04 8.968636393547E-06 5.440620260239E+03
     4.482000000000E+05-2.048909664154E-08-2.948545094396E+00 2.793967723846E-08
     9.901888907818E-01 1.615312500000E+02-7.098824696600E-01-5.280577100089E-09
    -3.775157250453E-10 5.210000000000E+02 2.035000000000E+03 0.000000000000E+00
     3.120000000000E+00 0.000000000000E+00-4.656612873077E-09-5.122274160385E-09
     4.488850000000E+05 0.000000000000E+00 0.000000000000E+00 0.000000000000E+00
E02 2019 01 11 04 30 00 4.283688031137E-05 1.605826582818E-12 0.000000000000E+00
     1.070000000000E+02-6.500000000000E+00 2.737614032613E-09-5.562093739759E-01
    -2.458691596985E-07 2.680390607566E-04 8.493661880493E-06 5.440614959717E+03
     4.482000000000E+05 3.352761268616E-08-2.948577519975E+00 2.421438694000E-08
     9.901972469699E-01 1.694375000000E+02-1.963323647282E-01-5.392724628627E-09
    -4.268034923643E-10 5.210000000000E+02 2.035000000000E+03 0.000000000000E+00
     3.120000000000E+00 0.000000000000E+00-6.053596735001E-09-7.217749953270E-09
     4.488850000000E+05 0.000000000000E+00 0.000000000000E+00 0.000000000000E+00
E03 2019 01 11 04 30 00-1.208492321894E-04-4.249045559845E-12 0.000000000000E+00
     1.070000000000E+02-1.690625000000E+01 3.055484416047E-09 7.305302270934E-01
    -7.133930921555E-07 2.599321305752E-04 1.112744212151E-05 5.440620824814E+03
     4.482000000000E+05-6.146728992462E-08 1.242078000940E+00-2.421438694000E-08
     9.524220513557E-01 9.937500000000E+01 6.078420215972E-01-5.405582307058E-09
     3.107272287506E-10 5.210000000000E+02 2.035000000000E+03 0.000000000000E+00
     3.120000000000E+00 0.000000000000E+00-1.862645149231E-09-2.095475792885E-09
     4.488850000000E+05 0.000000000000E+00 0.000000000000E+00 0.000000000000E+00
E07 2019 01 11 04 30 00-1.103655085899E-04-7.034373084025E-12 0.000000000000E+00
     1.070000000000E+02-1.031250000000E+00 3.143345218660E-09-1.984737593430E-01
    -9.313225746155E-08 1.368968514726E-04 1.015327870846E-05 5.440624700546E+03
     4.482000000000E+05 2.980232238770E-08 1.242079523838E+00-1.862645149231E-08
     9.524648563387E-01 1.189687500000E+02-3.357081586780E-02-5.529158883090E-09
     3.167989102319E-10 5.210000000000E+02 2.035000000000E+03 0.000000000000E+00
     3.120000000000E+00 0.000000000000E+00 2.328306436539E-10 0.000000000000E+00
     4.488850000000E+05 0.000000000000E+00 0.000000000000E+00 0.000000000000E+00
E11 2019 01 11 04 30 00 5.719536507968E-03 9.094947017729E-13 0.000000000000E+00
     1.070000000000E+02 1.609375000000E+01 3.225134339791E-09-9.181117611201E-01
     7.804483175278E-07 2.669151872396E-04 1.652166247368E-06 5.440599784851E+03
     4.482000000000E+05 5.587935447693E-09-8.632090541791E-01-1.862645149231E-09
     9.819027457678E-01 3.170000000000E+02-3.599552256257E-01-5.908460396806E-09
     1.353627812603E-10 5.210000000000E+02 2.035000000000E+03 0.000000000000E+00
     3.120000000000E+00 0.000000000000E+00-1.862645149231E-08-2.025626599789E-08
     4.488850000000E+05 0.000000000000E+00 0.000000000000E+00 0.000000000000E+00
E14 2019 01 11 04 30 00 6.461669167038E-03-5.584865903074E-12 0.000000000000E+00
     1.070000000000E+02 1.420312500000E+02 5.063425197698E-09-2.346300333421E+00
     7.908791303635E-06 1.662885397673E-01-1.372769474983E-06 5.289384042740E+03
     4.482000000000E+05 3.395602107048E-06-1.464781455079E+00 1.421198248863E-06
     8.826121023939E-01 3.408750000000E+02 1.456401507757E+00-6.637062174566E-09
     2.921550265724E-10 5.210000000000E+02 2.035000000000E+03 0.000000000000E+00
     3.120000000000E+00 4.550000000000E+02 3.282912075520E-08 3.702007234097E-08
     4.488850000000E+05 0.000000000000E+00 0.000000000000E+00 0.000000000000E+00
E15 2019 01 11 04 30 00 9.232886950485E-04-9.947598300641E-13 0.000000000000E+00
     1.070000000000E+02 1.862500000000E+01 3.072627987289E-09-2.012743231932E+00
     8.717179298401E-07 3.898859722540E-04 2.015382051468E-06 5.440593210220E+03
     4.482000000000E+05-4.656612873077E-08-8.685115514380E-01 1.676380634308E-08
     9.851027942169E-01 3.073750000000E+02-1.618172130039E+00-5.750596678291E-09
     1.246480492344E-10 5.210000000000E+02 2.035000000000E+03 0.000000000000E+00
     3.120000000000E+00 4.550000000000E+02 1.396983861923E-09 1.396983861923E-09
     4.488850000000E+05 0.000000000000E+00 0.000000000000E+00 0.000000000000E+00
E21 2019 01 11 04 30 00-5.138444830664E-04-1.833200258261E-12 0.000000000000E+00
     1.070000000000E+02 5.000000000000E+00 2.666896801242E-09-3.135765217437E+00
     2.533197402954E-07 4.807673394680E-05 8.868053555489E-06 5.440630985260E+03
     4.482000000000E+05-5.774199962616E-08-2.951152696133E+00 1.676380634308E-08
     9.897517445272E-01 1.649687500000E+02 4.481450140101E-02-5.324864659129E-09
    -3.907305612105E-10 5.210000000000E+02 2.035000000000E+03 0.000000000000E+00
     3.120000000000E+00 0.000000000000E+00-2.561137080193E-09-3.026798367500E-09
     4.488850000000E+05 0.000000000000E+00 0.000000000000E+00 0.000000000000E+00
E24 2019 01 11 04 30 00 6.292145350017E-03-1.962519036169E-11 0.000000000000E+00
     1.070000000000E+02 7.125000000000E+00 2.777258541109E-09 3.351055329820E-01
     2.123415470123E-07 4.768240032718E-04 9.004026651382E-06 5.440615268707E+03
     4.482000000000E+05 4.470348358154E-08-2.945081552457E+00 1.862645149231E-09
     9.877568114188E-01 1.615312500000E+02 4.802032735253E-01-5.359866117081E-09
    -4.410898017322E-10 5.210000000000E+02 2.035000000000E+03 0.000000000000E+00
     3.120000000000E+00 0.000000000000E+00 4.284083843231E-08 4.796311259270E-08
     4.488850000000E+05 0.000000000000E+00 0.000000000000E+00 0.000000000000E+00
E25 2019 01 11 04 30 00 1.927386270836E-03-1.136868377216E-11 0.000000000000E+00
     1.070000000000E+02-5.937500000000E+00 2.773329806033E-09 1.386337929762E+00
    -2.309679985046E-07 2.001100219786E-04 8.752569556236E-06 5.440622224808E+03
     4.482000000000E+05 4.284083843231E-08-2.951161741355E+00-1.490116119385E-08
     9.897577702868E-01 1.666875000000E+02-1.334117260756E+00-5.346651280915E-09
    -4.346609625166E-10 5.210000000000E+02 2.035000000000E+03 0.000000000000E+00
     3.120000000000E+00 0.000000000000E+00-1.164153218269E-09-1.396983861923E-09
     4.488850000000E+05 0.000000000000E+00 0.000000000000E+00 0.000000000000E+00
E27 2019 01 11 04 30 00 5.521234124899E-04-7.617018127348E-12 0.000000000000E+00
     1.070000000000E+02-4.625000000000E+00 2.744042871829E-09-1.461217268764E+00
    -3.334134817123E-07 1.966251293197E-04 8.860602974892E-06 5.440627290726E+03
     4.482000000000E+05-2.235174179077E-08-2.951136741548E+00-3.539025783539E-08
     9.897242314269E-01 1.655312500000E+02-8.428742178487E-01-5.365223483094E-09
    -3.718012012981E-10 5.210000000000E+02 2.035000000000E+03 0.000000000000E+00
     3.120000000000E+00 0.000000000000E+00-3.026798367500E-09-3.492459654808E-09
     4.488850000000E+05 0.000000000000E+00 0.000000000000E+00 0.000000000000E+00
E30 2019 01 11 04 30 00 5.198036378715E-03-3.045386165468E-11 0.000000000000E+00
     1.070000000000E+02-5.468750000000E+00 2.776187067906E-09-2.085520878453E+00
    -3.892928361893E-07 3.116718726233E-04 8.298084139824E-06 5.440612939835E+03
     4.482000000000E+05 1.862645149231E-09-2.945137672920E+00-4.097819328308E-08
     9.877408948701E-01 1.716562500000E+02 5.471284679940E-01-5.377724003790E-09
    -3.818016178556E-10 5.210000000000E+02 2.035000000000E+03 0.000000000000E+00
     3.120000000000E+00 0.000000000000E+00-3.259629011154E-09-3.958120942116E-09
     4.488850000000E+05 0.000000000000E+00 0.000000000000E+00 0.000000000000E+00
E31 2019 01 11 04 30 00 9.356680675410E-04-9.578116078046E-12 0.000000000000E+00
     1.070000000000E+02 1.028125000000E+01 2.700112470522E-09 3.140646300662E+00
     3.334134817123E-07 2.367481356487E-04 9.031966328621E-06 5.440624916077E+03
     4.482000000000E+05 3.539025783539E-08-2.951185257763E+00 5.774199962616E-08
     9.897272991661E-01 1.571250000000E+02-1.517712495160E+00-5.323436028193E-09
    -3.960879272235E-10 5.210000000000E+02 2.035000000000E+03 0.000000000000E+00
     3.120000000000E+00 0.000000000000E+00 2.328306436539E-10 0.000000000000E+00
     4.488850000000E+05 0.000000000000E+00 0.000000000000E+00 0.000000000000E+00
E33 2019 01 11 04 30 00 8.478979580104E-04 9.947598300641E-14 0.000000000000E+00
     1.070000000000E+02 9.062500000000E-01 3.080128299707E-09 1.740116744516E+00
     6.519258022308E-08 3.686961717904E-04 1.296401023865E-06 5.440593597412E+03
     4.482000000000E+05 2.235174179077E-08-8.685358256376E-01-1.676380634308E-08
     9.851412601849E-01 3.225000000000E+02-1.443658265361E+00-5.810599177636E-09
     3.857303529318E-11 5.210000000000E+02 2.035000000000E+03 0.000000000000E+00
     3.120000000000E+00 4.550000000000E+02-8.149072527885E-09-9.313225746155E-09
     4.488850000000E+05 0.000000000000E+00 0.000000000000E+00 0.000000000000E+00
